SL-14 R/B               
1 21423U 91042B   26038.10074091  .00000506  00000+0  61011-4 0  9992
2 21423  82.4899 248.8735 0016683 346.7344  13.3429 14.81800423848548
ERS-1                   
1 21574U 91050A   26038.04275588  .00000470  00000+0  16499-3 0  9994
2 21574  98.7896  55.5066 0030960 294.0185  65.7762 14.39424073811327
ARIANE 40 R/B           
1 21610U 91050F   26038.16656989  .00000421  00000+0  13866-3 0  9997
2 21610  98.2077  91.5389 0003713 149.2324 210.9085 14.42870815814591
INTERCOSMOS 25          
1 21819U 91086A   26038.27472435  .00001206  00000+0  23397-3 0  9993
2 21819  82.6086 328.3874 1486698 182.4558 176.8588 12.11915407493003
SL-8 R/B                
1 21876U 92008B   26038.19092538  .00000063  00000+0  49030-4 0  9997
2 21876  82.9267 290.4669 0033757 218.3696 253.5748 13.75969598705228
SL-8 R/B                
1 21938U 92020B   26037.93481414  .00000142  00000+0  13167-3 0  9995
2 21938  82.9327 176.5892 0029408  26.0900  91.1263 13.75544791696902
USA 81                  
1 21949U 92023A   26038.27057487  .00000293  00000+0  10109-3 0  9997
2 21949  85.0119 148.9807 0002555 104.7321 255.4155 14.32356623 90431
COSMOS 2219             
1 22219U 92076A   26038.31566171 -.00000133  00000+0 -44903-4 0  9991
2 22219  71.0585  81.5682 0020396 248.9139 110.9803 14.14076740714086
SL-16 R/B               
1 22220U 92076B   26038.06672794  .00000173  00000+0  11011-3 0  9999
2 22220  70.9980 252.8814 0011604 150.8095 323.8049 14.16855283717493
COSMOS 2221             
1 22236U 92080A   26038.20672743  .00002940  00000+0  25908-3 0  9995
2 22236  82.5058 308.2744 0012999 299.3719  60.6204 14.96078512776239
SL-16 R/B               
1 22285U 92093B   26038.28062954 -.00000149  00000+0 -51695-4 0  9992
2 22285  71.0201  68.1050 0005104 325.4308  34.6482 14.15441133708859
COSMOS 2228             
1 22286U 92094A   26038.24300814  .00002955  00000+0  25341-3 0  9993
2 22286  82.5156 266.4658 0019174  47.4690 312.8148 14.97051167771506
