CCSDS_OMM_VERS = 2.0
CREATION_DATE  = 
ORIGINATOR     = 

OBJECT_NAME    = SL-14 R/B
OBJECT_ID      = 1991-042B
CENTER_NAME    = EARTH
REF_FRAME      = TEME
TIME_SYSTEM    = UTC
MEAN_ELEMENT_THEORY = SGP/SGP4

EPOCH          = 2026-02-07T02:25:04.014624
MEAN_MOTION    = 14.81800423
ECCENTRICITY   = .00166836
INCLINATION    = 82.4899
RA_OF_ASC_NODE = 248.8735
ARG_OF_PERICENTER = 346.7344
MEAN_ANOMALY   = 13.3429

EPHEMERIS_TYPE = 0
CLASSIFICATION_TYPE = U
NORAD_CAT_ID   = 21423
ELEMENT_SET_NO = 999
REV_AT_EPOCH   = 84854
BSTAR          = .61011039E-4
MEAN_MOTION_DOT = .506E-5
MEAN_MOTION_DDOT = 0

CCSDS_OMM_VERS = 2.0
CREATION_DATE  = 
ORIGINATOR     = 

OBJECT_NAME    = ERS-1
OBJECT_ID      = 1991-050A
CENTER_NAME    = EARTH
REF_FRAME      = TEME
TIME_SYSTEM    = UTC
MEAN_ELEMENT_THEORY = SGP/SGP4

EPOCH          = 2026-02-07T01:01:34.108032
MEAN_MOTION    = 14.39424073
ECCENTRICITY   = .00309606
INCLINATION    = 98.7896
RA_OF_ASC_NODE = 55.5066
ARG_OF_PERICENTER = 294.0185
MEAN_ANOMALY   = 65.7762

EPHEMERIS_TYPE = 0
CLASSIFICATION_TYPE = U
NORAD_CAT_ID   = 21574
ELEMENT_SET_NO = 999
REV_AT_EPOCH   = 81132
BSTAR          = .16498732E-3
MEAN_MOTION_DOT = .47E-5
MEAN_MOTION_DDOT = 0

CCSDS_OMM_VERS = 2.0
CREATION_DATE  = 
ORIGINATOR     = 

OBJECT_NAME    = ARIANE 40 R/B
OBJECT_ID      = 1991-050F
CENTER_NAME    = EARTH
REF_FRAME      = TEME
TIME_SYSTEM    = UTC
MEAN_ELEMENT_THEORY = SGP/SGP4

EPOCH          = 2026-02-07T03:59:51.638496
MEAN_MOTION    = 14.42870815
ECCENTRICITY   = .00037132
INCLINATION    = 98.2077
RA_OF_ASC_NODE = 91.5389
ARG_OF_PERICENTER = 149.2324
MEAN_ANOMALY   = 210.9085

EPHEMERIS_TYPE = 0
CLASSIFICATION_TYPE = U
NORAD_CAT_ID   = 21610
ELEMENT_SET_NO = 999
REV_AT_EPOCH   = 81459
BSTAR          = .13866143E-3
MEAN_MOTION_DOT = .421E-5
MEAN_MOTION_DDOT = 0

CCSDS_OMM_VERS = 2.0
CREATION_DATE  = 
ORIGINATOR     = 

OBJECT_NAME    = INTERCOSMOS 25
OBJECT_ID      = 1991-086A
CENTER_NAME    = EARTH
REF_FRAME      = TEME
TIME_SYSTEM    = UTC
MEAN_ELEMENT_THEORY = SGP/SGP4

EPOCH          = 2026-02-07T06:35:36.183840
MEAN_MOTION    = 12.11915407
ECCENTRICITY   = .14866984
INCLINATION    = 82.6086
RA_OF_ASC_NODE = 328.3874
ARG_OF_PERICENTER = 182.4558
MEAN_ANOMALY   = 176.8588

EPHEMERIS_TYPE = 0
CLASSIFICATION_TYPE = U
NORAD_CAT_ID   = 21819
ELEMENT_SET_NO = 999
REV_AT_EPOCH   = 49300
BSTAR          = .23396943E-3
MEAN_MOTION_DOT = .1206E-4
MEAN_MOTION_DDOT = 0

CCSDS_OMM_VERS = 2.0
CREATION_DATE  = 
ORIGINATOR     = 

OBJECT_NAME    = SL-8 R/B
OBJECT_ID      = 1992-008B
CENTER_NAME    = EARTH
REF_FRAME      = TEME
TIME_SYSTEM    = UTC
MEAN_ELEMENT_THEORY = SGP/SGP4

EPOCH          = 2026-02-07T04:34:55.952832
MEAN_MOTION    = 13.75969598
ECCENTRICITY   = .00337579
INCLINATION    = 82.9267
RA_OF_ASC_NODE = 290.4669
ARG_OF_PERICENTER = 218.3696
MEAN_ANOMALY   = 253.5748

EPHEMERIS_TYPE = 0
CLASSIFICATION_TYPE = U
NORAD_CAT_ID   = 21876
ELEMENT_SET_NO = 999
REV_AT_EPOCH   = 70522
BSTAR          = .4902972E-4
MEAN_MOTION_DOT = .63E-6
MEAN_MOTION_DDOT = 0

CCSDS_OMM_VERS = 2.0
CREATION_DATE  = 
ORIGINATOR     = 

OBJECT_NAME    = SL-8 R/B
OBJECT_ID      = 1992-020B
CENTER_NAME    = EARTH
REF_FRAME      = TEME
TIME_SYSTEM    = UTC
MEAN_ELEMENT_THEORY = SGP/SGP4

EPOCH          = 2026-02-06T22:26:07.941696
MEAN_MOTION    = 13.75544791
ECCENTRICITY   = .0029408
INCLINATION    = 82.9327
RA_OF_ASC_NODE = 176.5892
ARG_OF_PERICENTER = 26.0900
MEAN_ANOMALY   = 91.1263

EPHEMERIS_TYPE = 0
CLASSIFICATION_TYPE = U
NORAD_CAT_ID   = 21938
ELEMENT_SET_NO = 999
REV_AT_EPOCH   = 69690
BSTAR          = .13167E-3
MEAN_MOTION_DOT = .142E-5
MEAN_MOTION_DDOT = 0

CCSDS_OMM_VERS = 2.0
CREATION_DATE  = 
ORIGINATOR     = 

OBJECT_NAME    = USA 81
OBJECT_ID      = 1992-023A
CENTER_NAME    = EARTH
REF_FRAME      = TEME
TIME_SYSTEM    = UTC
MEAN_ELEMENT_THEORY = SGP/SGP4

EPOCH          = 2026-02-07T06:29:37.668768
MEAN_MOTION    = 14.32356623
ECCENTRICITY   = .00025558
INCLINATION    = 85.0119
RA_OF_ASC_NODE = 148.9807
ARG_OF_PERICENTER = 104.7321
MEAN_ANOMALY   = 255.4155

EPHEMERIS_TYPE = 0
CLASSIFICATION_TYPE = U
NORAD_CAT_ID   = 21949
ELEMENT_SET_NO = 999
REV_AT_EPOCH   = 9043
BSTAR          = .1010925E-3
MEAN_MOTION_DOT = .293E-5
MEAN_MOTION_DDOT = 0

CCSDS_OMM_VERS = 2.0
CREATION_DATE  = 
ORIGINATOR     = 

OBJECT_NAME    = COSMOS 2219
OBJECT_ID      = 1992-076A
CENTER_NAME    = EARTH
REF_FRAME      = TEME
TIME_SYSTEM    = UTC
MEAN_ELEMENT_THEORY = SGP/SGP4

EPOCH          = 2026-02-07T07:34:33.171744
MEAN_MOTION    = 14.14076740
ECCENTRICITY   = .00203966
INCLINATION    = 71.0585
RA_OF_ASC_NODE = 81.5682
ARG_OF_PERICENTER = 248.9139
MEAN_ANOMALY   = 110.9803

EPHEMERIS_TYPE = 0
CLASSIFICATION_TYPE = U
NORAD_CAT_ID   = 22219
ELEMENT_SET_NO = 999
REV_AT_EPOCH   = 71408
BSTAR          = -.44902551E-4
MEAN_MOTION_DOT = -.133E-5
MEAN_MOTION_DDOT = 0

CCSDS_OMM_VERS = 2.0
CREATION_DATE  = 
ORIGINATOR     = 

OBJECT_NAME    = SL-16 R/B
OBJECT_ID      = 1992-076B
CENTER_NAME    = EARTH
REF_FRAME      = TEME
TIME_SYSTEM    = UTC
MEAN_ELEMENT_THEORY = SGP/SGP4

EPOCH          = 2026-02-07T01:36:05.294016
MEAN_MOTION    = 14.16855283
ECCENTRICITY   = .00116049
INCLINATION    = 70.9980
RA_OF_ASC_NODE = 252.8814
ARG_OF_PERICENTER = 150.8095
MEAN_ANOMALY   = 323.8049

EPHEMERIS_TYPE = 0
CLASSIFICATION_TYPE = U
NORAD_CAT_ID   = 22220
ELEMENT_SET_NO = 999
REV_AT_EPOCH   = 71749
BSTAR          = .11010955E-3
MEAN_MOTION_DOT = .173E-5
MEAN_MOTION_DDOT = 0

CCSDS_OMM_VERS = 2.0
CREATION_DATE  = 
ORIGINATOR     = 

OBJECT_NAME    = COSMOS 2221
OBJECT_ID      = 1992-080A
CENTER_NAME    = EARTH
REF_FRAME      = TEME
TIME_SYSTEM    = UTC
MEAN_ELEMENT_THEORY = SGP/SGP4

EPOCH          = 2026-02-07T04:57:41.249952
MEAN_MOTION    = 14.96078512
ECCENTRICITY   = .00129993
INCLINATION    = 82.5058
RA_OF_ASC_NODE = 308.2744
ARG_OF_PERICENTER = 299.3719
MEAN_ANOMALY   = 60.6204

EPHEMERIS_TYPE = 0
CLASSIFICATION_TYPE = U
NORAD_CAT_ID   = 22236
ELEMENT_SET_NO = 999
REV_AT_EPOCH   = 77623
BSTAR          = .25907668E-3
MEAN_MOTION_DOT = .294E-4
MEAN_MOTION_DDOT = 0

CCSDS_OMM_VERS = 2.0
CREATION_DATE  = 
ORIGINATOR     = 

OBJECT_NAME    = SL-16 R/B
OBJECT_ID      = 1992-093B
CENTER_NAME    = EARTH
REF_FRAME      = TEME
TIME_SYSTEM    = UTC
MEAN_ELEMENT_THEORY = SGP/SGP4

EPOCH          = 2026-02-07T06:44:06.392256
MEAN_MOTION    = 14.15441133
ECCENTRICITY   = .00051041
INCLINATION    = 71.0201
RA_OF_ASC_NODE = 68.1050
ARG_OF_PERICENTER = 325.4308
MEAN_ANOMALY   = 34.6482

EPHEMERIS_TYPE = 0
CLASSIFICATION_TYPE = U
NORAD_CAT_ID   = 22285
ELEMENT_SET_NO = 999
REV_AT_EPOCH   = 70885
BSTAR          = -.51694758E-4
MEAN_MOTION_DOT = -.149E-5
MEAN_MOTION_DDOT = 0

CCSDS_OMM_VERS = 2.0
CREATION_DATE  = 
ORIGINATOR     = 

OBJECT_NAME    = COSMOS 2228
OBJECT_ID      = 1992-094A
CENTER_NAME    = EARTH
REF_FRAME      = TEME
TIME_SYSTEM    = UTC
MEAN_ELEMENT_THEORY = SGP/SGP4

EPOCH          = 2026-02-07T05:49:55.903296
MEAN_MOTION    = 14.97051167
ECCENTRICITY   = .00191746
INCLINATION    = 82.5156
RA_OF_ASC_NODE = 266.4658
ARG_OF_PERICENTER = 47.4690
MEAN_ANOMALY   = 312.8148

EPHEMERIS_TYPE = 0
CLASSIFICATION_TYPE = U
NORAD_CAT_ID   = 22286
ELEMENT_SET_NO = 999
REV_AT_EPOCH   = 77150
BSTAR          = .25341282E-3
MEAN_MOTION_DOT = .2955E-4
MEAN_MOTION_DDOT = 0

